HST                     
1 20580U 90037B   22166.72259426  .00001958  00000+0  10487-3 0  9993
2 20580  28.4685 180.2715 0002576  22.0506 128.8465 15.10573416565956
POLAR                   
1 23802U 96013A   22161.09317639  .00000236  00000+0  00000+0 0  9993
2 23802  78.7627 241.6898 5818488 259.1221  33.9523  1.29847350125794
SWAS                    
1 25560U 98071A   22166.90442124  .00001646  00000+0  15942-3 0  9996
2 25560  69.8986 350.0846 0009603 308.8288  51.2010 14.94777644277791
CXO                     
1 25867U 99040B   22168.04708049  .00000414  00000+0  00000+0 0  9998
2 25867  45.2910 235.0204 8817742 234.2072   0.1320  0.37810622 22957
XMM-NEWTON              
1 25989U 99066A   22166.50182818 -.00000031  00000+0  00000+0 0  9996
2 25989  70.1128 304.7401 6038474  86.8236   0.2702  0.50132882 15666
TERRA                   
1 25994U 99068A   22167.04400674  .00000352  00000+0  87993-4 0  9993
2 25994  98.1368 238.9967 0001255  94.5041  26.2854 14.57141727196299
CLUSTER II-FM7 (SAMBA)  
1 26410U 00041A   22168.88298125  .00000515  00000+0  00000+0 0  9999
2 26410 134.1732 347.7685 5640341 199.3147 359.7414  0.44216792 13814
CLUSTER II-FM6 (SALSA)  
1 26411U 00041B   22168.85159542  .00000686  00000+0  00000+0 0  9995
2 26411 136.3799 351.2967 7288301 204.0815 359.6870  0.44220280 13853
CLUSTER II-FM5 (RUMBA)  
1 26463U 00045A   22168.85576721  .00000745  00000+0  00000+0 0  9994
2 26463 139.9262 351.5832 6802550 204.8941 359.6489  0.44220131 13742
CLUSTER II-FM8 (TANGO)  
1 26464U 00045B   22168.86110201  .00000515  00000+0  00000+0 0  9998
2 26464 134.1784 347.7613 5639683 199.3180 359.6177  0.44219335 13827
ODIN                    
1 26702U 01007A   22166.99758590  .00007396  00000+0  45913-3 0  9993
2 26702  97.5191 181.7640 0008780 298.9022  61.1326 15.09955519166059
TIMED                   
1 26998U 01055B   22167.03300545  .00000999  00000+0  11103-3 0  9998
2 26998  74.0724 282.4719 0001089 224.7970 135.3123 14.88678624112794
RHESSI                  
1 27370U 02004A   22166.00040550  .00027493  00000+0  59203-3 0  9992
2 27370  38.0330  17.9030 0006102 215.8092 144.2274 15.43805102126231
INTEGRAL                
1 27540U 02048A   22166.16899418  .00000373  00000+0  00000+0 0  9996
2 27540  75.1784  59.6001 8916132 298.4469 200.3540  0.37575751 21136
CORIOLIS                
1 27640U 03001A   22167.04625573  .00000080  00000+0  59166-4 0  9991
2 27640  98.7169 176.0519 0015406 100.9155 324.9427 14.19132814  6783
SORCE                   
1 27651U 03004A   22166.85748900  .00001280  00000+0  14426-3 0  9996
2 27651  39.9944 226.4038 0022155 101.9430 258.3845 14.89918513 52831
MOST                    
1 27843U 03031D   22167.01593788  .00000059  00000+0  47815-4 0  9992
2 27843  98.7068 174.6419 0010606 146.8048 213.3797 14.20686357983048
SCISAT 1                
1 27858U 03036A   22167.02096537  .00000444  00000+0  67047-4 0  9991
2 27858  73.9316 186.9193 0009046 232.7865 127.2484 14.77564725 15226
SWIFT                   
1 28485U 04047A   22166.77444201  .00004424  00000+0  26138-3 0  9994
2 28485  20.5579 322.1829 0010309 278.0300  81.8965 15.06421450963291
CLOUDSAT                
1 29107U 06016A   22167.03398303  .00000282  00000+0  64575-4 0  9991
2 29107  98.3281 127.1674 0002526 333.0791  27.0279 14.62981664858826
CALIPSO                 
1 29108U 06016B   22167.03344223  .00000912  00000+0  18773-3 0  9992
2 29108  98.3252 126.7326 0001579  80.6615 279.4765 14.62944548858813
HINODE (SOLAR-B)        
1 29479U 06041A   22167.00708076  .00000608  00000+0  12266-3 0  9991
2 29479  98.1207 182.1901 0017383 227.3849 132.5889 14.64828801840548
SJ-6C                   
1 29505U 06046A   22166.95443130  .00002372  00000+0  21611-3 0  9990
2 29505  97.7764 187.9877 0006141 117.1625 243.0248 14.96099580852475
SJ-6D                   
1 29506U 06046B   22166.93722249  .00000891  00000+0  88899-4 0  9996
2 29506  97.7957 188.1238 0001709 173.7597 186.3653 14.94042692851912
AGILE                   
1 31135U 07013A   22166.00000321  .00011677  00000+0  27017-3 0  9998
2 31135   2.4669 251.5668 0009668  53.0043 307.0895 15.37833044476578
AIM                     
1 31304U 07015A   22167.01094241  .00010372  00000+0  51784-3 0  9993
2 31304  97.8564  86.1591 0006024  39.8009 320.3665 15.17681120830977
FGRST (GLAST)           
1 33053U 08029A   22166.71859482  .00001433  00000+0  63909-4 0  9995
2 33053  25.5813 179.0037 0012191 158.7357 201.3686 15.12192133773435
WISE                    
1 36119U 09071A   22167.02389726  .00008525  00000+0  26468-3 0  9990
2 36119  97.2386 201.4760 0001107   8.4279 351.6982 15.33612158695285
SDO                     
1 36395U 10005A   22163.35773622 -.00000059  00000+0  00000+0 0  9994
2 36395  31.6459 109.3063 0001601 271.9251 266.2807  1.00270624 45364
CRYOSAT 2               
1 36508U 10013A   22167.01314229  .00000150  00000+0  36332-4 0  9993
2 36508  92.0355 283.7255 0003091 231.8772 128.2157 14.52019211645921
X-SAT                   
1 37389U 11015C   22167.03309689  .00000017  00000+0  24942-4 0  9996
2 37389  98.3342 200.3704 0013377 320.8335  39.1884 14.24425669580001
GCOM-W1 (SHIZUKU)       
1 38337U 12025A   22166.91723878  .00000464  00000+0  11310-3 0  9998
2 38337  98.2032 107.4324 0001189  89.3025 310.9598 14.57086315536095
NUSTAR                  
1 38358U 12031A   22167.04448358  .00002700  00000+0  20340-3 0  9998
2 38358   6.0279  13.9872 0011975 315.3929  44.5237 14.89365341544640
NEOSSAT                 
1 39089U 13009D   22166.78481540  .00000151  00000+0  68433-4 0  9990
2 39089  98.4228   3.1337 0010095 284.4434  75.5631 14.34664650486975
BRITE-AUSTRIA           
1 39091U 13009F   22166.95928999  .00000161  00000+0  71300-4 0  9994
2 39091  98.4060   4.3037 0009272 284.6108  75.4049 14.35274915487219
IRIS                    
1 39197U 13033A   22166.96019751  .00000852  00000+0  12115-3 0  9991
2 39197  97.9698 352.8171 0028238  36.3944 323.9180 14.79240990483756
HISAKI (SPRINT-A)       
1 39253U 13049A   22167.05407335  .00000089  00000+0  36704-4 0  9994
2 39253  29.7198  91.8615 0136816  45.8744 315.2992 13.55282604432913
CASSIOPE                
1 39265U 13055A   22166.97947702  .00009520  00000+0  25613-3 0  9996
2 39265  80.9664 268.9042 0622095 322.6532  33.2885 14.38652099452128
STSAT-3                 
1 39422U 13066G   22167.01023368  .00000696  00000+0  76397-4 0  9993
2 39422  97.4677 172.2381 0021063 288.3462  71.5481 14.90491729465626
SWARM B                 
1 39451U 13067A   22166.96019261  .00002305  00000+0  10406-3 0  9993
2 39451  87.7514  61.7624 0002666  84.9345 275.2204 15.20480348460709
SWARM A                 
1 39452U 13067B   22166.98357411  .00000066  00000+0  63483-6 0  9996
2 39452  87.3625 225.0737 0003539  87.4687 272.6971 15.35764675481705
SWARM C                 
1 39453U 13067C   22166.97938065  .00005169  00000+0  14771-3 0  9998
2 39453  87.3469 224.5464 0003676  86.9443 273.2230 15.35740305481663
BRITE-CA1 (TORONTO)     
1 40020U 14033L   22166.98495598  .00000625  00000+0  11410-3 0  9993
2 40020  97.7782 326.0191 0085396 268.1249  91.0175 14.67037903427447
OCO 2                   
1 40059U 14035A   22167.04320985  .00000400  00000+0  98974-4 0  9994
2 40059  98.2024 108.2886 0001495  84.5215 275.6154 14.57087115423123
BRITE-PL2 (HEWELIUSZ)   
1 40119U 14049B   22166.99628160  .00001198  00000+0  14611-3 0  9995
2 40119  97.8836 262.6359 0015948 244.7821 115.1740 14.85126722423798
RESURS P2               
1 40360U 14087A   22166.92604627  .00004751  00000+0  13494-3 0  9996
2 40360  97.2074 251.8575 0010928  95.3632  17.8645 15.36609145418021
MMS 1                   
1 40482U 15011A   22155.52030983 -.00000427  00000+0  00000+0 0  9993
2 40482  32.3028 105.5481 8661484  51.6075 215.2799  0.28453506 13263
MMS 2                   
1 40483U 15011B   22163.90108951 -.00000465  00000+0  00000+0 0  9998
2 40483  32.2595 105.2759 8663229  52.0021 352.8742  0.28438305 13268
MMS 3                   
1 40484U 15011C   22161.46662872 -.00000109  00000+0  00000+0 0  9990
2 40484  32.2983 105.4731 8666002  51.7759 103.9125  0.28441179 13025
MMS 4                   
1 40485U 15011D   22160.53876144 -.00000064  00000+0  00000+0 0  9997
2 40485  32.3076 105.4961 8665770  51.7391   8.9358  0.28442128 13250
ASTROSAT                
1 40930U 15052A   22166.10768131  .00001236  00000+0  83719-4 0  9996
2 40930   5.9956 194.9989 0008288 124.5650 235.5260 14.76646672362801
DAMPE                   
1 41173U 15078A   22167.02781333  .00000737  00000+0  32889-4 0  9992
2 41173  97.3755 157.8187 0012759 198.2764 246.9372 15.24436720361368
PISAT                   
1 41784U 16059B   22166.97841366  .00000756  00000+0  15240-3 0  9998
2 41784  97.9155 210.3875 0032043 171.6851 188.4889 14.63909274305479
HXMT (HUIYAN)           
1 42758U 17034A   22167.03637109  .00002310  00000+0  15111-3 0  9995
2 42758  43.0189 356.1276 0010330 273.3904 229.9311 15.10448782275964
FLYING LAPTOP           
1 42831U 17042G   22167.05386300  .00000368  00000+0  41654-4 0  9995
2 42831  97.4236  21.5940 0014490  18.9672 341.2117 14.91778932267884
PICSAT                  
1 43132U 18004X   22166.79450280  .00015887  00000+0  52587-3 0  9996
2 43132  97.3722 243.1804 0007258  17.5556 342.5935 15.31379172246156
ZHANGZHENG-1 (CSES)     
1 43194U 18015C   22166.95698595  .00006172  00000+0  28059-3 0  9991
2 43194  97.5220 297.7111 0012692 108.8799   7.8514 15.21038239242397
ICON                    
1 44628U 19068A   22166.49435575  .00002251  00000+0  19254-3 0  9990
2 44628  26.9899 321.4439 0018275 325.8883  34.0501 14.92855307146272
SALSAT                  
1 46495U 20068K   22166.83298404  .00002509  00000+0  18327-3 0  9998
2 46495  97.7306 108.1325 0014699 285.0246  74.9353 15.04511413 93949
IXPE                    
1 49954U 21121A   22167.04535849  .00002681  00000+0  18683-3 0  9999
2 49954   0.2311  32.6390 0011207 273.4169  53.8407 14.91381072 28223
